NORAD_CAT_ID,OBJECT_NAME,OBJECT_TYPE,EPOCH,MEAN_MOTION,ECCENTRICITY,INCLINATION,RA_OF_ASC_NODE,ARG_OF_PERICENTER,MEAN_ANOMALY,BSTAR,MEAN_MOTION_DOT,MEAN_MOTION_DDOT,TLE_LINE0,TLE_LINE1,TLE_LINE2,SEMIMAJOR_AXIS,PERIOD,APOGEE,PERIGEE,DECAYED
51813.0,STARLINK-3552,PAYLOAD,2023-06-28 02:21:33,15.08845427,0.0001004,53.2175,73.645,87.7059,272.4048,5.6436e-05,6.11e-06,0.0,0 STARLINK-3552,1 51813U 22017AX  23179.09830198  .00000611  00000-0  56436-4 0  9996,2 51813  53.2175  73.6450 0001004  87.7059 272.4048 15.08845427 75406,6917.864,95.437,540.423,539.034,0.0
51813.0,STARLINK-3552,PAYLOAD,2023-06-28 23:01:34,15.08835083,0.0001005,53.2175,69.7794,92.5845,267.5262,-1.4779e-05,-5.23e-06,0.0,0 STARLINK-3552,1 51813U 22017AX  23179.95943199 -.00000523  00000-0 -14779-4 0  9995,2 51813  53.2175  69.7794 0001005  92.5845 267.5262 15.08835083 75535,6917.895,95.438,540.456,539.065,0.0
51813.0,STARLINK-3552,PAYLOAD,2023-06-29 03:47:43,15.08842092,9.65e-05,53.2178,68.8871,94.8962,265.214,8.0109e-05,9.87e-06,0.0,0 STARLINK-3552,1 51813U 22017AX  23180.15814466  .00000987  00000-0  80109-4 0  9995,2 51813  53.2178  68.8871 0000965  94.8962 265.2140 15.08842092 75564,6917.874,95.437,540.407,539.071,0.0
51813.0,STARLINK-3552,PAYLOAD,2023-06-29 16:30:49,15.08836937,0.0001254,53.218,66.5082,66.1525,293.9599,7.142e-05,8.49e-06,0.0,0 STARLINK-3552,1 51813U 22017AX  23180.68806954  .00000849  00000-0  71420-4 0  9999,2 51813  53.2180  66.5082 0001254  66.1525 293.9599 15.08836937 75641,6917.89,95.438,540.622,538.887,0.0
51813.0,STARLINK-3552,PAYLOAD,2023-06-30 16:21:36,15.08833938,8.74e-05,53.217,62.0482,104.7481,255.3608,6.2111e-05,7.01e-06,0.0,0 STARLINK-3552,1 51813U 22017AX  23181.68166841  .00000701  00000-0  62111-4 0  9998,2 51813  53.2170  62.0482 0000874 104.7481 255.3608 15.08833938 75799,6917.899,95.438,540.369,539.159,0.0
51813.0,STARLINK-3552,PAYLOAD,2023-07-02 01:44:41,15.08844862,0.0001085,53.2175,55.8019,92.3731,267.7385,1.0964e-05,-1.13e-06,0.0,0 STARLINK-3552,1 51813U 22017AX  23183.07270598 -.00000113  00000-0  10964-4 0  9995,2 51813  53.2175  55.8019 0001085  92.3731 267.7385 15.08844862 76007,6917.866,95.437,540.481,538.98,0.0
51813.0,STARLINK-3552,PAYLOAD,2023-07-02 16:03:10,15.08831443,0.0001258,53.2168,53.1259,88.5912,271.5224,3.0159e-05,1.92e-06,0.0,0 STARLINK-3552,1 51813U 22017AX  23183.66887493  .00000192  00000-0  30159-4 0  9992,2 51813  53.2168  53.1259 0001258  88.5912 271.5224 15.08831443 76091,6917.907,95.438,540.642,538.901,0.0
51813.0,STARLINK-3552,PAYLOAD,2023-07-03 23:50:53,15.08841521,0.0001248,53.2172,47.1806,91.4627,268.6508,6.4691e-05,7.42e-06,0.0,0 STARLINK-3552,1 51813U 22017AX  23184.99367142  .00000742  00000-0  64691-4 0  9992,2 51813  53.2172  47.1806 0001248  91.4627 268.6508 15.08841521 76294,6917.876,95.437,540.604,538.877,0.0
51813.0,STARLINK-3552,PAYLOAD,2023-07-05 09:13:59,15.08835201,0.0001271,53.2166,40.9349,85.1311,274.9827,5.6602e-05,6.13e-06,0.0,0 STARLINK-3552,1 51813U 22017AX  23186.38471722  .00000613  00000-0  56602-4 0  9997,2 51813  53.2166  40.9349 0001271  85.1311 274.9827 15.08835201 76502,6917.895,95.438,540.639,538.881,0.0
51813.0,STARLINK-3552,PAYLOAD,2023-07-06 15:26:18,15.08844066,0.0001238,53.2167,35.2851,85.3814,274.7319,5.1014e-05,5.24e-06,0.0,0 STARLINK-3552,1 51813U 22017AX  23187.64327339  .00000524  00000-0  51014-4 0  9994,2 51813  53.2167  35.2851 0001238  85.3814 274.7319 15.08844066 76694,6917.868,95.437,540.589,538.877,0.0
51813.0,STARLINK-3552,PAYLOAD,2023-07-06 20:12:27,15.08848892,0.0001215,53.2167,34.3928,86.8025,273.3106,8.9739e-05,1.141e-05,0.0,0 STARLINK-3552,1 51813U 22017AX  23187.84198847  .00001141  00000-0  89739-4 0  9997,2 51813  53.2167  34.3928 0001215  86.8025 273.3106 15.08848892 76728,6917.853,95.437,540.559,538.878,0.0
51813.0,STARLINK-3552,PAYLOAD,2023-07-07 20:03:15,15.08837449,0.0001158,53.2168,29.9326,81.3443,278.7681,8.186e-05,1.015e-05,0.0,0 STARLINK-3552,1 51813U 22017AX  23188.83559612  .00001015  00000-0  81860-4 0  9995,2 51813  53.2168  29.9326 0001158  81.3443 278.7681 15.08837449 76870,6917.888,95.438,540.554,538.952,0.0
51813.0,STARLINK-3552,PAYLOAD,2023-07-08 23:04:48,15.08844281,0.0001194,53.2168,24.8761,82.8834,277.2294,-1.8029e-05,-5.75e-06,0.0,0 STARLINK-3552,1 51813U 22017AX  23189.96167433 -.00000575  00000-0 -18029-4 0  9995,2 51813  53.2168  24.8761 0001194  82.8834 277.2294 15.08844281 77043,6917.867,95.437,540.558,538.906,0.0
51813.0,STARLINK-3552,PAYLOAD,2023-07-09 18:09:26,15.08835948,0.0001228,53.2172,21.3065,81.0858,279.0274,-1.984e-06,-3.19e-06,0.0,0 STARLINK-3552,1 51813U 22017AX  23190.75656068 -.00000319  00000-0 -19840-5 0  9990,2 51813  53.2172  21.3065 0001228  81.0858 279.0274 15.08835948 77163,6917.893,95.438,540.607,538.908,0.0
51813.0,STARLINK-3552,PAYLOAD,2023-07-10 19:35:36,15.08838159,0.0001228,53.2179,16.5478,84.3344,275.7788,0.00010197,1.335e-05,0.0,0 STARLINK-3552,1 51813U 22017AX  23191.81639672  .00001335  00000-0  10197-3 0  9991,2 51813  53.2179  16.5478 0001228  84.3344 275.7788 15.08838159 77328,6917.886,95.438,540.601,538.901,0.0
51813.0,STARLINK-3552,PAYLOAD,2023-07-11 11:29:29,15.08825253,0.00017,53.2176,13.5771,72.9677,287.1502,-1.9502e-05,-5.98e-06,0.0,0 STARLINK-3552,1 51813U 22017AX  23192.47881388 -.00000598  00000-0 -19502-4 0  9999,2 51813  53.2176  13.5771 0001700  72.9677 287.1502 15.08825253 77428,6917.925,95.438,540.967,538.614,0.0
51813.0,STARLINK-3552,PAYLOAD,2023-07-12 17:41:48,15.08845855,0.000112,53.2177,7.9265,83.6301,276.4819,6.7682e-05,7.9e-06,0.0,0 STARLINK-3552,1 51813U 22017AX  23193.73736541  .00000790  00000-0  67682-4 0  9993,2 51813  53.2177   7.9265 0001120  83.6301 276.4819 15.08845855 77616,6917.862,95.437,540.502,538.953,0.0
51813.0,STARLINK-3552,PAYLOAD,2023-07-13 19:07:58,15.0884235,0.0001081,53.219,3.1684,89.5239,270.5877,0.00022425,3.283e-05,0.0,0 STARLINK-3552,1 51813U 22017AX  23194.79720383  .00003283  00000-0  22425-3 0  9992,2 51813  53.2190   3.1684 0001081  89.5239 270.5877 15.08842350 77778,6917.873,95.437,540.486,538.99,0.0
51813.0,STARLINK-3552,PAYLOAD,2023-07-14 20:34:07,15.08857603,0.000103,53.2182,358.4089,89.161,270.95,0.00010837,1.438e-05,0.0,0 STARLINK-3552,1 51813U 22017AX  23195.85703531  .00001438  00000-0  10837-3 0  9990,2 51813  53.2182 358.4089 0001030  89.1610 270.9500 15.08857603 77939,6917.827,95.436,540.404,538.979,0.0
51813.0,STARLINK-3552,PAYLOAD,2023-07-15 10:52:36,15.08843045,0.000142,53.2177,355.7332,90.9746,269.1409,2.4144e-05,9.6e-07,0.0,0 STARLINK-3552,1 51813U 22017AX  23196.45320342  .00000096  00000-0  24144-4 0  9998,2 51813  53.2177 355.7332 0001420  90.9746 269.1409 15.08843045 78021,6917.871,95.437,540.718,538.754,0.0
51813.0,STARLINK-3552,PAYLOAD,2023-07-16 17:04:56,15.08838395,0.0001235,53.2172,350.0851,92.4788,267.6346,4.594e-05,4.43e-06,0.0,0 STARLINK-3552,1 51813U 22017AX  23197.71176654  .00000443  00000-0  45940-4 0  9996,2 51813  53.2172 350.0851 0001235  92.4788 267.6346 15.08838395 78213,6917.885,95.438,540.605,538.896,0.0
51813.0,STARLINK-3552,PAYLOAD,2023-07-17 21:41:52,15.08857646,0.0001146,53.2172,344.7319,91.7616,268.3508,0.00036395,5.512e-05,0.0,0 STARLINK-3552,1 51813U 22017AX  23198.90407745  .00005512  00000-0  36395-3 0  9991,2 51813  53.2172 344.7319 0001146  91.7616 268.3508 15.08857646 78392,6917.826,95.436,540.484,538.899,0.0
51813.0,STARLINK-3552,PAYLOAD,2023-07-18 15:11:07,15.08841662,0.0001602,53.2164,341.4569,116.8634,243.2522,2.4584e-05,1.03e-06,0.0,0 STARLINK-3552,1 51813U 22017AX  23199.63272352  .00000103  00000-0  24584-4 0  9995,2 51813  53.2164 341.4569 0001602 116.8634 243.2522 15.08841662 78502,6917.875,95.437,540.849,538.632,0.0
51813.0,STARLINK-3552,PAYLOAD,2023-07-19 08:40:22,15.08829292,0.000111,53.2178,338.1898,103.9549,256.1567,-0.00012003,-2.197e-05,0.0,0 STARLINK-3552,1 51813U 22017AX  23200.36137039 -.00002197  00000-0 -12003-3 0  9999,2 51813  53.2178 338.1898 0001110 103.9549 256.1567 15.08829292 78610,6917.913,95.438,540.546,539.01,0.0
51813.0,STARLINK-3552,PAYLOAD,2023-07-20 21:14:15,15.08832781,8.4e-05,53.2166,331.351,94.1188,265.99,0.00036213,5.479e-05,0.0,0 STARLINK-3552,1 51813U 22017AX  23201.88490047  .00005479  00000-0  36213-3 0  9991,2 51813  53.2166 331.3510 0000840  94.1188 265.9900 15.08832781 78843,6917.902,95.438,540.349,539.186,0.0
51813.0,STARLINK-3552,PAYLOAD,2023-07-24 07:54:17,15.08845475,0.0001039,53.2167,315.8888,88.3721,271.739,0.00029287,4.377e-05,0.0,0 STARLINK-3552,1 51813U 22017AX  23205.32937335  .00004377  00000-0  29287-3 0  9999,2 51813  53.2167 315.8888 0001039  88.3721 271.7390 15.08845475 79256,6917.864,95.437,540.447,539.01,0.0
51813.0,STARLINK-3552,PAYLOAD,2023-07-25 12:31:14,15.08839828,0.0001065,53.2158,310.5362,92.6141,267.4973,3.3381e-05,2.44e-06,0.0,0 STARLINK-3552,1 51813U 22017AX  23206.52169219  .00000244  00000-0  33381-4 0  9990,2 51813  53.2158 310.5362 0001065  92.6141 267.4973 15.08839828 79432,6917.881,95.438,540.483,539.009,0.0
51813.0,STARLINK-3552,PAYLOAD,2023-07-26 09:11:15,15.08842512,9.58e-05,53.2159,306.6706,94.5791,265.5311,0.0004909,7.534e-05,0.0,0 STARLINK-3552,1 51813U 22017AX  23207.38281472  .00007534  00000-0  49090-3 0  9993,2 51813  53.2159 306.6706 0000958  94.5791 265.5311 15.08842512 79566,6917.873,95.437,540.4,539.075,0.0
51813.0,STARLINK-3552,PAYLOAD,2023-07-26 15:32:47,15.08834715,5.88e-05,53.2148,305.4799,69.66,290.4455,0.00021335,3.109e-05,0.0,0 STARLINK-3552,1 51813U 22017AX  23207.64777634  .00003109  00000-0  21335-3 0  9998,2 51813  53.2148 305.4799 0000588  69.6600 290.4455 15.08834715 79713,6917.897,95.438,540.168,539.355,0.0
51813.0,STARLINK-3552,PAYLOAD,2023-07-27 18:34:20,15.08849583,6.56e-05,53.2157,300.425,84.3636,275.7431,0.0002534,3.749e-05,0.0,0 STARLINK-3552,1 51813U 22017AX  23208.77385140  .00003749  00000-0  25340-3 0  9990,2 51813  53.2157 300.4250 0000656  84.3636 275.7431 15.08849583 79774,6917.851,95.437,540.17,539.262,0.0
